[{"OBJECT_NAME":"CENTISPACE-1 S3","OBJECT_ID":"2022-108A","EPOCH":"2026-03-09T21:17:43.722240","MEAN_MOTION":14.6113097,"ECCENTRICITY":0.00108359,"INCLINATION":53.532,"RA_OF_ASC_NODE":105.8367,"ARG_OF_PERICENTER":82.3446,"MEAN_ANOMALY":277.876,"EPHEMERIS_TYPE":0,"CLASSIFICATION_TYPE":"U","NORAD_CAT_ID":53757,"ELEMENT_SET_NO":999,"REV_AT_EPOCH":18701,"BSTAR":0.00015693315,"MEAN_MOTION_DOT":5.89e-6,"MEAN_MOTION_DDOT":0},{"OBJECT_NAME":"CZ-4B DEB","OBJECT_ID":"1999-057FC","EPOCH":"2026-03-09T05:39:53.338464","MEAN_MOTION":14.72573328,"ECCENTRICITY":0.00700669,"INCLINATION":98.4153,"RA_OF_ASC_NODE":164.7687,"ARG_OF_PERICENTER":31.5324,"MEAN_ANOMALY":329.0053,"EPHEMERIS_TYPE":0,"CLASSIFICATION_TYPE":"U","NORAD_CAT_ID":26266,"ELEMENT_SET_NO":999,"REV_AT_EPOCH":36852,"BSTAR":0.0013028818,"MEAN_MOTION_DOT":8.565e-5,"MEAN_MOTION_DDOT":0}]
